[{"OBJECT_NAME":"STARLINK-2155","OBJECT_ID":"2021-041E","EPOCH":"2026-03-09T13:00:51.683040","MEAN_MOTION":15.30214781,"ECCENTRICITY":0.00012582,"INCLINATION":53.1599,"RA_OF_ASC_NODE":127.3794,"ARG_OF_PERICENTER":83.6523,"MEAN_ANOMALY":276.4621,"EPHEMERIS_TYPE":0,"CLASSIFICATION_TYPE":"U","NORAD_CAT_ID":48557,"ELEMENT_SET_NO":999,"REV_AT_EPOCH":26525,"BSTAR":0.00036090745,"MEAN_MOTION_DOT":0.0001035,"MEAN_MOTION_DDOT":0},{"OBJECT_NAME":"GLOBAL-34","OBJECT_ID":"2026-043A","EPOCH":"2026-03-09T11:23:30.999840","MEAN_MOTION":15.31488019,"ECCENTRICITY":0.00068849,"INCLINATION":42.0215,"RA_OF_ASC_NODE":76.7399,"ARG_OF_PERICENTER":289.2632,"MEAN_ANOMALY":70.746,"EPHEMERIS_TYPE":0,"CLASSIFICATION_TYPE":"U","NORAD_CAT_ID":68098,"ELEMENT_SET_NO":999,"REV_AT_EPOCH":53,"BSTAR":0.00045822046,"MEAN_MOTION_DOT":0.00014018,"MEAN_MOTION_DDOT":0}]
