STARLINK-2155           
1 48557U 21041E   26068.54226485  .00010350  00000+0  36091-3 0  9995
2 48557  53.1599 127.3794 0001258  83.6523 276.4621 15.30214781265259
GLOBAL-34               
1 68098U 26043A   26068.47466435  .00014018  00000+0  45822-3 0  9994
2 68098  42.0215  76.7399 0006884 289.2632  70.7460 15.31488019   538
